STARLINK-32675          
1 62208U 24229S   25175.62120236  .00012805  00000+0  47389-3 0  9998
2 62208  42.9995 288.1051 0001132 276.3541  83.7182 15.27590190 32225
STARLINK-32671          
1 62209U 24229T   25175.65717927  .00011940  00000+0  44257-3 0  9991
2 62209  43.0002 288.3744 0001387 265.6001  94.4692 15.27589648 32289
STARLINK-32670          
1 62210U 24229U   25175.61347942 -.00003587  00000+0 -12087-3 0  9991
2 62210  43.0012 288.0480 0001931 280.0768  79.9866 15.27581282 31097
STARLINK-32642          
1 62211U 24229V   25175.34554248  .00025159  00000+0  92089-3 0  9998
2 62211  43.0021 289.4767 0001327 274.2490  85.8210 15.27572396 31058
STARLINK-32668          
1 62212U 24229W   25175.57557537  .00010983  00000+0  40792-3 0  9991
2 62212  43.0001 285.1678 0001788 267.9491  92.1156 15.27590422 31120
STARLINK-32669          
1 62213U 24229X   25175.58151424  .00011583  00000+0  42964-3 0  9998
2 62213  43.0015 288.6654 0001385 248.1498 111.9207 15.27591638 31081
STARLINK-32666          
1 62214U 24229Y   25175.32639467  .00019535  00000+0  71724-3 0  9990
2 62214  42.9959 290.1878 0000915 227.1015 132.9760 15.27593314 31049
STARLINK-32662          
1 62215U 24229Z   25175.37764994  .00008897  00000+0  33249-3 0  9999
2 62215  43.0016 289.7125 0001412 262.5312  97.5379 15.27576741 31059
STARLINK-11394 [DTC]    
1 62218U 24231A   25175.58885001  .00089420  00000+0  73448-3 0  9997
2 62218  53.1574 293.6252 0000364  67.4575 292.6481 15.69727065 32771
STARLINK-11490 [DTC]    
1 62219U 24231B   25175.59375597  .00125754  00000+0  10266-2 0  9992
2 62219  53.1575 293.6563 0000649   2.6603 357.4418 15.69723407 32885
STARLINK-11466 [DTC]    
1 62220U 24231C   25175.79457000  .00109207  00000+0  89239-3 0  9998
2 62220  53.1572 292.7787 0000453 159.9025 200.2010 15.69765312 32850
STARLINK-11468 [DTC]    
1 62221U 24231D   25175.61337750  .00131643  00000+0  10733-2 0  9990
2 62221  53.1575 293.7850 0000337  83.5367 276.5689 15.69731858 32876
STARLINK-11488 [DTC]    
1 62222U 24231E   25175.59866018  .00114369  00000+0  93406-3 0  9997
2 62222  53.1571 293.6866 0000453 112.3564 247.7502 15.69757600 32617
STARLINK-11483 [DTC]    
1 62223U 24231F   25175.56432229  .00129187  00000+0  10521-2 0  9998
2 62223  53.1578 293.4607 0000286  66.8314 293.2734 15.69768167 32899
STARLINK-11492 [DTC]    
1 62224U 24231G   25175.79948140  .00150356  00000+0  12224-2 0  9992
2 62224  53.1579 292.8232 0000939  74.3443 285.7678 15.69732515 32879
STARLINK-11471 [DTC]    
1 62225U 24231H   25175.76023901  .00173786  00000+0  14078-2 0  9990
2 62225  53.1576 292.5622 0000869  39.1998 320.9083 15.69738185 32593
STARLINK-11475 [DTC]    
1 62226U 24231J   25175.70147399  .00097996  00000+0  80322-3 0  9997
2 62226  53.1562 292.8952 0001162  53.4604 306.6521 15.69739455 32845
STARLINK-11469 [DTC]    
1 62227U 24231K   25175.83862161  .00115282  00000+0  94083-3 0  9991
2 62227  53.1577 292.3350 0002484  14.3739 345.7349 15.69769835 32861
STARLINK-11476 [DTC]    
1 62228U 24231L   25175.62310037  .00063923  00000+0  52851-3 0  9990
2 62228  53.1574 293.1122 0000843  97.9490 262.1624 15.69705942 32848
STARLINK-11485 [DTC]    
1 62229U 24231M   25175.83371535  .00137583  00000+0  11196-2 0  9994
2 62229  53.1573 292.2983 0000727  87.6224 272.4877 15.69756119 32650
STARLINK-11481 [DTC]    
1 62230U 24231N   25175.68195182  .00152255  00000+0  12358-2 0  9995
2 62230  53.1575 293.4998 0000482  78.5639 281.5433 15.69765438 32822
STARLINK-32650          
1 62231U 24231P   25175.74738046  .00020041  00000+0  68688-3 0  9990
2 62231  53.1584 337.9311 0001008  76.2723 283.8390 15.30202275 32246
STARLINK-32636          
1 62232U 24231Q   25174.85819511  .00012690  00000+0  44025-3 0  9999
2 62232  53.1603 341.6302 0000806 105.2519 254.8571 15.30169772 32087
STARLINK-32643          
1 62233U 24231R   25175.79073979  .00028678  00000+0  72417-3 0  9993
2 62233  53.1593 332.5247 0001077  88.4344 271.6784 15.39623067 32323
STARLINK-32652          
1 62234U 24231S   25175.46923568  .00011516  00000+0  40024-3 0  9998
2 62234  53.1589 339.0435 0001983  96.6039 263.5188 15.30208190 32222
STARLINK-32631          
1 62235U 24231T   25175.79969719  .00029500  00000+0  74461-3 0  9997
2 62235  53.1590 332.5815 0001050  86.3159 273.7966 15.39621148 32317
STARLINK-32641          
1 62236U 24231U   25175.76718228  .00059942  00000+0  14937-2 0  9996
2 62236  53.1592 332.3786 0000936 112.2633 247.8471 15.39682450 32319
STARLINK-32632          
1 62262U 24231V   25175.87063136 -.00009058  00000+0 -29436-3 0  9994
2 62262  53.1566 337.2793 0001185  80.3531 279.7604 15.30166766 32253
STARLINK-11496 [DTC]    
1 62267U 24237A   25175.06620833  .00194577  00000+0  14797-2 0  9991
2 62267  42.9989 175.8560 0001996 255.7174 104.3472 15.70919210 32375
STARLINK-11501 [DTC]    
1 62268U 24237B   25175.35229067  .00114003  00000+0  87881-3 0  9999
2 62268  43.0016 173.6828 0002261 269.4538  90.6071 15.70865911 32374
STARLINK-11491 [DTC]    
1 62269U 24237C   25175.34698393  .00126232  00000+0  97138-3 0  9994
2 62269  42.9990 173.6406 0001359 268.7685  91.3027 15.70864587 32421
STARLINK-11479 [DTC]    
1 62270U 24237D   25175.29932747  .00117264  00000+0  90396-3 0  9998
2 62270  43.0004 174.1476 0002760 284.6013  75.4549 15.70852326 32412
STARLINK-11489 [DTC]    
1 62271U 24237E   25175.27290950  .00111523  00000+0  86033-3 0  9995
2 62271  42.9985 174.8344 0000965 271.6447  88.4310 15.70859012 32400
STARLINK-11494 [DTC]    
1 62272U 24237F   25175.37883868  .00110427  00000+0  85202-3 0  9992
2 62272  42.9998 173.8966 0002007 276.0317  84.0322 15.70857962 32371
STARLINK-11333 [DTC]    
1 62273U 24237G   25175.07154631  .00138083  00000+0  10613-2 0  9990
2 62273  42.9991 175.8974 0002394 269.6513  90.4080 15.70850281 32370
STARLINK-11504 [DTC]    
1 62274U 24237H   25175.37353131  .00144895  00000+0  11123-2 0  9995
2 62274  42.9993 173.8516 0001346 277.9149  82.1566 15.70857580 32372
STARLINK-11495 [DTC]    
1 62275U 24237J   25175.34180176  .00105208  00000+0  81242-3 0  9995
2 62275  43.0009 174.4925 0001893 262.1029  97.9624 15.70858415 32360
STARLINK-11498 [DTC]    
1 62276U 24237K   25175.29401820  .00106662  00000+0  82359-3 0  9997
2 62276  42.9999 174.1030 0002598 280.2049  79.8525 15.70853052 32414
STARLINK-11484 [DTC]    
1 62277U 24237L   25175.36822043  .00135067  00000+0  10382-2 0  9997
2 62277  43.0009 173.8072 0001802 274.8792  85.1870 15.70860009 32426
STARLINK-11487 [DTC]    
1 62278U 24237M   25175.71267993  .00201222  00000+0  15285-2 0  9998
2 62278  42.9984 172.1052 0002858 269.7988  90.2552 15.70923737 32476
STARLINK-11499 [DTC]    
1 62279U 24237N   25175.34270322  .00110735  00000+0  85501-3 0  9995
2 62279  43.0009 174.4955 0002268 266.1529  93.9079 15.70839245 32341
STARLINK-33548          
1 62280U 24237P   25175.58335648  .00056841  00000+0  20608-2 0  9999
2 62280  43.0001 223.1560 0001132 275.7821  77.7787 15.27555052  5911
STARLINK-33544          
1 62281U 24237Q   25175.18063402  .00017624  00000+0  64833-3 0  9997
2 62281  42.9988 236.5172 0001987 278.0804  81.9822 15.27585189 31657
STARLINK-33560          
1 62282U 24237R   25175.22803053  .00010634  00000+0  39535-3 0  9992
2 62282  43.0023 236.0110 0002190 277.9585  82.1018 15.27583744 31574
STARLINK-33547          
1 62283U 24237S   25175.58335648  .00059575  00000+0  21586-2 0  9995
2 62283  42.9996 223.1015 0001438 276.8119  97.9793 15.27555920  5859
STARLINK-33563          
1 62284U 24237T   25175.56138611  .00013265  00000+0  49053-3 0  9991
2 62284  43.0035 234.2164 0002224 288.6876  71.3734 15.27590328 31715
STARLINK-33550          
1 62285U 24237U   25175.22417420  .00011067  00000+0  41106-3 0  9992
2 62285  43.0009 235.9806 0001284 252.8119 107.2593 15.27582196 31666
STARLINK-33564          
1 62286U 24237V   25175.23831109  .00017160  00000+0  63128-3 0  9996
2 62286  42.9974 236.0894 0001731 274.0825  85.9828 15.27598125 31664
STARLINK-33546          
1 62287U 24237W   25175.55752942  .00006029  00000+0  22840-3 0  9997
2 62287  43.0021 234.1844 0001672 271.1978  88.8683 15.27584708 31624
STARLINK-33565          
1 62288U 24237X   25175.91668981 -.00003084  00000+0 -10260-3 0  9990
2 62288  42.9987 220.8272 0001785 279.7979 292.8866 15.27575370 31895
STARLINK-33549          
1 62289U 24237Y   25175.24216548  .00012646  00000+0  46821-3 0  9999
2 62289  42.9978 236.1175 0001725 264.4893  95.5761 15.27583213 31660
STARLINK-32648          
1 62301U 24239A   25175.74686022  .02683596  00000+0  52024-1 0  9999
2 62301  53.1593 306.9379 0022080 358.1692   1.9230 15.43162881 29941
STARLINK-32594          
1 62302U 24239B   25175.70038186  .00015039  00000+0  51887-3 0  9995
2 62302  53.1610 310.0436 0000973  75.6418 284.4691 15.30199641 29912
STARLINK-32621          
1 62303U 24239C   25175.66835584  .00019102  00000+0  48620-3 0  9994
2 62303  53.1577 307.1570 0000645 118.3495 241.7575 15.39627746 30007
STARLINK-32597          
1 62304U 24239D   25175.91668981  .00014730  00000+0  37772-3 0  9996
2 62304  53.1595 306.2991 0001040  72.0577  68.9071 15.39603402 29980
STARLINK-32649          
1 62305U 24239E   25175.52914871  .00012021  00000+0  41725-3 0  9990
2 62305  53.1582 312.6805 0001223  78.5956 281.5182 15.30205809 29860
STARLINK-32633          
1 62306U 24239F   25175.75464230  .00025066  00000+0  85574-3 0  9998
2 62306  53.1599 311.9500 0001144  87.4618 272.6514 15.30194025 29899
STARLINK-32646          
1 62307U 24239G   25175.54781613  .00023791  00000+0  60261-3 0  9992
2 62307  53.1590 307.8280 0001380  91.0330 269.0833 15.39634647 29931
STARLINK-32706          
1 62308U 24239H   25175.52293223  .00015240  00000+0  52558-3 0  9996
2 62308  53.1561 313.3507 0001405  92.3944 267.7218 15.30202611 29853
